OBJECT_NAME,OBJECT_ID,EPOCH,MEAN_MOTION,ECCENTRICITY,INCLINATION,RA_OF_ASC_NODE,ARG_OF_PERICENTER,MEAN_ANOMALY,EPHEMERIS_TYPE,CLASSIFICATION_TYPE,NORAD_CAT_ID,ELEMENT_SET_NO,REV_AT_EPOCH,BSTAR,MEAN_MOTION_DOT,MEAN_MOTION_DDOT
SZ-21 MODULE,2025-246C,2026-07-15T00:08:30.178176,15.78799904,.00083628,41.4717,133.7507,219.7242,140.2991,0,U,66515,999,3813,.19406782E-3,.35069E-3,0
SPACEMOBILE-006,2025-309A,2026-07-15T08:13:11.161056,15.18653983,.00100574,52.9937,202.6601,215.7672,144.2649,0,U,67232,999,3087,.48788741E-4,.702E-5,0
SPACEMOBILE-008,2026-139A,2026-07-15T05:15:12.949632,15.12801985,.00050681,52.9948,135.2997,56.5691,303.5784,0,U,69589,999,422,.16690427E-4,-.5E-7,0
SPACEMOBILE-009,2026-139B,2026-07-15T05:18:02.660832,15.12695316,.00053104,52.9939,135.3065,52.3964,307.7508,0,U,69590,999,422,.19438968E-4,.43E-6,0
SPACEMOBILE-010,2026-139C,2026-07-15T05:22:31.861632,15.12527718,.0005239,52.9945,135.3285,44.4295,315.7116,0,U,69591,999,423,.28987384E-4,.21E-5,0
